{
    "links": {
        "self": "http://www.neowsapp.com/rest/v1/neo/3324631?api_key=iIulBulltgU6a56xZRHN4H3l9WmuAYTsLGpBGhQ2"
    },
    "id": "3324631",
    "neo_reference_id": "3324631",
    "name": "(2006 DW62)",
    "designation": "2006 DW62",
    "nasa_jpl_url": "http://ssd.jpl.nasa.gov/sbdb.cgi?sstr=3324631",
    "absolute_magnitude_h": 21.2,
    "estimated_diameter": {
        "kilometers": {
            "estimated_diameter_min": 0.1529519353,
            "estimated_diameter_max": 0.3420109247
        },
        "meters": {
            "estimated_diameter_min": 152.9519353442,
            "estimated_diameter_max": 342.0109247198
        },
        "miles": {
            "estimated_diameter_min": 0.095039897,
            "estimated_diameter_max": 0.2125156703
        },
        "feet": {
            "estimated_diameter_min": 501.8108275547,
            "estimated_diameter_max": 1122.0831222578
        }
    },
    "is_potentially_hazardous_asteroid": false,
    "close_approach_data": [
        {
            "close_approach_date": "1998-11-02",
            "close_approach_date_full": "1998-Nov-02 10:27",
            "epoch_date_close_approach": 910002420000,
            "relative_velocity": {
                "kilometers_per_second": "11.938678257",
                "kilometers_per_hour": "42979.2417253778",
                "miles_per_hour": "26705.6293931938"
            },
            "miss_distance": {
                "astronomical": "1.8167387002",
                "lunar": "706.7113543778",
                "kilometers": "271780239.896488574",
                "miles": "168876410.1684833612"
            },
            "orbiting_body": "Juptr"
        },
        {
            "close_approach_date": "2006-03-07",
            "close_approach_date_full": "2006-Mar-07 02:49",
            "epoch_date_close_approach": 1141699740000,
            "relative_velocity": {
                "kilometers_per_second": "12.341622959",
                "kilometers_per_hour": "44429.8426524202",
                "miles_per_hour": "27606.9763969996"
            },
            "miss_distance": {
                "astronomical": "0.1745092768",
                "lunar": "67.8841086752",
                "kilometers": "26106216.104520416",
                "miles": "16221650.4794211008"
            },
            "orbiting_body": "Earth"
        },
        {
            "close_approach_date": "2128-10-04",
            "close_approach_date_full": "2128-Oct-04 13:53",
            "epoch_date_close_approach": 5009953980000,
            "relative_velocity": {
                "kilometers_per_second": "12.0527491395",
                "kilometers_per_hour": "43389.896902128",
                "miles_per_hour": "26960.7945501028"
            },
            "miss_distance": {
                "astronomical": "1.5933751818",
                "lunar": "619.8229457202",
                "kilometers": "238365533.308142766",
                "miles": "148113474.2846155308"
            },
            "orbiting_body": "Juptr"
        },
        {
            "close_approach_date": "2133-02-26",
            "close_approach_date_full": "2133-Feb-26 12:16",
            "epoch_date_close_approach": 5148706560000,
            "relative_velocity": {
                "kilometers_per_second": "15.5139011678",
                "kilometers_per_hour": "55850.0442040073",
                "miles_per_hour": "34703.0455222066"
            },
            "miss_distance": {
                "astronomical": "0.4212554447",
                "lunar": "163.8683679883",
                "kilometers": "63018917.253022789",
                "miles": "39158139.3939769282"
            },
            "orbiting_body": "Earth"
        },
        {
            "close_approach_date": "2140-08-06",
            "close_approach_date_full": "2140-Aug-06 05:46",
            "epoch_date_close_approach": 5383518360000,
            "relative_velocity": {
                "kilometers_per_second": "11.7639287254",
                "kilometers_per_hour": "42350.1434113561",
                "miles_per_hour": "26314.7321657951"
            },
            "miss_distance": {
                "astronomical": "1.5156138701",
                "lunar": "589.5737954689",
                "kilometers": "226732606.709416687",
                "miles": "140885108.8799248006"
            },
            "orbiting_body": "Juptr"
        }
    ],
    "orbital_data": {
        "orbit_id": "12",
        "orbit_determination_date": "2017-04-06 09:09:00",
        "first_observation_date": "2006-02-26",
        "last_observation_date": "2006-03-30",
        "data_arc_in_days": 32,
        "observations_used": 51,
        "orbit_uncertainty": "7",
        "minimum_orbit_intersection": ".151825",
        "jupiter_tisserand_invariant": "2.746",
        "epoch_osculation": "2459000.5",
        "eccentricity": ".6454673032592331",
        "semi_major_axis": "3.226887617361433",
        "inclination": "19.59765979469787",
        "ascending_node_longitude": "345.3153902482141",
        "orbital_period": "2117.259975098286",
        "perihelion_distance": "1.144037169062537",
        "perihelion_argument": "182.7440145212295",
        "aphelion_distance": "5.309738065660329",
        "perihelion_time": "2458055.843698396078",
        "mean_anomaly": "160.620931098282",
        "mean_motion": ".1700310799023575",
        "equinox": "J2000",
        "orbit_class": {
            "orbit_class_type": "AMO",
            "orbit_class_description": "Near-Earth asteroid orbits similar to that of 1221 Amor",
            "orbit_class_range": "1.017 AU < q (perihelion) < 1.3 AU"
        }
    },
    "is_sentry_object": false
}